{
    "links": {
        "self": "http://www.neowsapp.com/rest/v1/neo/3092328?api_key=iIulBulltgU6a56xZRHN4H3l9WmuAYTsLGpBGhQ2"
    },
    "id": "3092328",
    "neo_reference_id": "3092328",
    "name": "(2001 RX47)",
    "designation": "2001 RX47",
    "nasa_jpl_url": "http://ssd.jpl.nasa.gov/sbdb.cgi?sstr=3092328",
    "absolute_magnitude_h": 20.1,
    "estimated_diameter": {
        "kilometers": {
            "estimated_diameter_min": 0.2538370294,
            "estimated_diameter_max": 0.5675968529
        },
        "meters": {
            "estimated_diameter_min": 253.8370293645,
            "estimated_diameter_max": 567.5968528656
        },
        "miles": {
            "estimated_diameter_min": 0.1577269688,
            "estimated_diameter_max": 0.3526882241
        },
        "feet": {
            "estimated_diameter_min": 832.7986794202,
            "estimated_diameter_max": 1862.1944587557
        }
    },
    "is_potentially_hazardous_asteroid": false,
    "close_approach_data": [
        {
            "close_approach_date": "2001-07-12",
            "close_approach_date_full": "2001-Jul-12 10:11",
            "epoch_date_close_approach": 994932660000,
            "relative_velocity": {
                "kilometers_per_second": "6.8691425129",
                "kilometers_per_hour": "24728.9130463982",
                "miles_per_hour": "15365.58488708"
            },
            "miss_distance": {
                "astronomical": "0.1606533771",
                "lunar": "62.4941636919",
                "kilometers": "24033403.022466777",
                "miles": "14933664.1549524426"
            },
            "orbiting_body": "Earth"
        }
    ],
    "orbital_data": {
        "orbit_id": "12",
        "orbit_determination_date": "2017-04-06 09:16:08",
        "first_observation_date": "2001-09-11",
        "last_observation_date": "2001-10-17",
        "data_arc_in_days": 36,
        "observations_used": 21,
        "orbit_uncertainty": "7",
        "minimum_orbit_intersection": ".162883",
        "jupiter_tisserand_invariant": "3.686",
        "epoch_osculation": "2459000.5",
        "eccentricity": ".4226109374411226",
        "semi_major_axis": "2.020033512941413",
        "inclination": "10.72644111898771",
        "ascending_node_longitude": "276.9873125059182",
        "orbital_period": "1048.66382987127",
        "perihelion_distance": "1.166345256374758",
        "perihelion_argument": "23.93602770198117",
        "aphelion_distance": "2.873721769508068",
        "perihelion_time": "2459455.044875114182",
        "mean_anomaly": "203.9574719944399",
        "mean_motion": ".3432939992258456",
        "equinox": "J2000",
        "orbit_class": {
            "orbit_class_type": "AMO",
            "orbit_class_description": "Near-Earth asteroid orbits similar to that of 1221 Amor",
            "orbit_class_range": "1.017 AU < q (perihelion) < 1.3 AU"
        }
    },
    "is_sentry_object": false
}